CCSDS_OMM_VERS = 2.0
CREATION_DATE  = 
ORIGINATOR     = 

OBJECT_NAME    = STARLINK-36699
OBJECT_ID      = 2026-022E
CENTER_NAME    = EARTH
REF_FRAME      = TEME
TIME_SYSTEM    = UTC
MEAN_ELEMENT_THEORY = SGP/SGP4

EPOCH          = 2026-02-16T04:00:00.999936
MEAN_MOTION    = 15.75200516
ECCENTRICITY   = .0000972
INCLINATION    = 97.2835
RA_OF_ASC_NODE = 80.0800
ARG_OF_PERICENTER = 75.3720
MEAN_ANOMALY   = 174.5951

EPHEMERIS_TYPE = 0
CLASSIFICATION_TYPE = U
NORAD_CAT_ID   = 67652
ELEMENT_SET_NO = 999
REV_AT_EPOCH   = 343
BSTAR          = -.12863E-3
MEAN_MOTION_DOT = -.19281E-3
MEAN_MOTION_DDOT = 0

CCSDS_OMM_VERS = 2.0
CREATION_DATE  = 
ORIGINATOR     = 

OBJECT_NAME    = STARLINK-36694
OBJECT_ID      = 2026-022F
CENTER_NAME    = EARTH
REF_FRAME      = TEME
TIME_SYSTEM    = UTC
MEAN_ELEMENT_THEORY = SGP/SGP4

EPOCH          = 2026-02-16T04:00:00.999936
MEAN_MOTION    = 15.75252464
ECCENTRICITY   = .0001102
INCLINATION    = 97.2834
RA_OF_ASC_NODE = 80.0852
ARG_OF_PERICENTER = 67.9977
MEAN_ANOMALY   = 193.9601

EPHEMERIS_TYPE = 0
CLASSIFICATION_TYPE = U
NORAD_CAT_ID   = 67653
ELEMENT_SET_NO = 999
REV_AT_EPOCH   = 343
BSTAR          = -.10051E-2
MEAN_MOTION_DOT = -.147879E-2
MEAN_MOTION_DDOT = 0

CCSDS_OMM_VERS = 2.0
CREATION_DATE  = 
ORIGINATOR     = 

OBJECT_NAME    = STARLINK-36620
OBJECT_ID      = 2026-022G
CENTER_NAME    = EARTH
REF_FRAME      = TEME
TIME_SYSTEM    = UTC
MEAN_ELEMENT_THEORY = SGP/SGP4

EPOCH          = 2026-02-16T04:00:00.999936
MEAN_MOTION    = 15.75224810
ECCENTRICITY   = .0000702
INCLINATION    = 97.2835
RA_OF_ASC_NODE = 80.0855
ARG_OF_PERICENTER = 68.2629
MEAN_ANOMALY   = 195.6900

EPHEMERIS_TYPE = 0
CLASSIFICATION_TYPE = U
NORAD_CAT_ID   = 67654
ELEMENT_SET_NO = 999
REV_AT_EPOCH   = 343
BSTAR          = -.3697E-3
MEAN_MOTION_DOT = -.54999E-3
MEAN_MOTION_DDOT = 0

CCSDS_OMM_VERS = 2.0
CREATION_DATE  = 
ORIGINATOR     = 

OBJECT_NAME    = STARLINK-36720
OBJECT_ID      = 2026-022H
CENTER_NAME    = EARTH
REF_FRAME      = TEME
TIME_SYSTEM    = UTC
MEAN_ELEMENT_THEORY = SGP/SGP4

EPOCH          = 2026-02-16T04:00:00.999936
MEAN_MOTION    = 15.75208348
ECCENTRICITY   = .0001698
INCLINATION    = 97.2834
RA_OF_ASC_NODE = 80.0903
ARG_OF_PERICENTER = 83.5035
MEAN_ANOMALY   = 190.4519

EPHEMERIS_TYPE = 0
CLASSIFICATION_TYPE = U
NORAD_CAT_ID   = 67655
ELEMENT_SET_NO = 999
REV_AT_EPOCH   = 343
BSTAR          = -.19178E-3
MEAN_MOTION_DOT = -.28664E-3
MEAN_MOTION_DDOT = 0

CCSDS_OMM_VERS = 2.0
CREATION_DATE  = 
ORIGINATOR     = 

OBJECT_NAME    = STARLINK-36688
OBJECT_ID      = 2026-022J
CENTER_NAME    = EARTH
REF_FRAME      = TEME
TIME_SYSTEM    = UTC
MEAN_ELEMENT_THEORY = SGP/SGP4

EPOCH          = 2026-02-16T04:00:00.999936
MEAN_MOTION    = 15.75216512
ECCENTRICITY   = .0000984
INCLINATION    = 97.2835
RA_OF_ASC_NODE = 80.0913
ARG_OF_PERICENTER = 86.2545
MEAN_ANOMALY   = 191.6990

EPHEMERIS_TYPE = 0
CLASSIFICATION_TYPE = U
NORAD_CAT_ID   = 67656
ELEMENT_SET_NO = 999
REV_AT_EPOCH   = 343
BSTAR          = -.22447E-3
MEAN_MOTION_DOT = -.33516E-3
MEAN_MOTION_DDOT = 0

CCSDS_OMM_VERS = 2.0
CREATION_DATE  = 
ORIGINATOR     = 

OBJECT_NAME    = STARLINK-36706
OBJECT_ID      = 2026-022K
CENTER_NAME    = EARTH
REF_FRAME      = TEME
TIME_SYSTEM    = UTC
MEAN_ELEMENT_THEORY = SGP/SGP4

EPOCH          = 2026-02-16T04:00:00.999936
MEAN_MOTION    = 15.75203632
ECCENTRICITY   = .0001321
INCLINATION    = 97.2833
RA_OF_ASC_NODE = 80.0938
ARG_OF_PERICENTER = 82.6730
MEAN_ANOMALY   = 203.3039

EPHEMERIS_TYPE = 0
CLASSIFICATION_TYPE = U
NORAD_CAT_ID   = 67657
ELEMENT_SET_NO = 999
REV_AT_EPOCH   = 340
BSTAR          = -.34832E-3
MEAN_MOTION_DOT = -.518E-3
MEAN_MOTION_DDOT = 0

CCSDS_OMM_VERS = 2.0
CREATION_DATE  = 
ORIGINATOR     = 

OBJECT_NAME    = STARLINK-36701
OBJECT_ID      = 2026-022L
CENTER_NAME    = EARTH
REF_FRAME      = TEME
TIME_SYSTEM    = UTC
MEAN_ELEMENT_THEORY = SGP/SGP4

EPOCH          = 2026-02-16T04:00:00.999936
MEAN_MOTION    = 15.75214654
ECCENTRICITY   = .0001118
INCLINATION    = 97.2834
RA_OF_ASC_NODE = 80.0970
ARG_OF_PERICENTER = 81.8159
MEAN_ANOMALY   = 210.1529

EPHEMERIS_TYPE = 0
CLASSIFICATION_TYPE = U
NORAD_CAT_ID   = 67658
ELEMENT_SET_NO = 999
REV_AT_EPOCH   = 343
BSTAR          = -.46894E-3
MEAN_MOTION_DOT = -.6958E-3
MEAN_MOTION_DDOT = 0

CCSDS_OMM_VERS = 2.0
CREATION_DATE  = 
ORIGINATOR     = 

OBJECT_NAME    = STARLINK-36642
OBJECT_ID      = 2026-022M
CENTER_NAME    = EARTH
REF_FRAME      = TEME
TIME_SYSTEM    = UTC
MEAN_ELEMENT_THEORY = SGP/SGP4

EPOCH          = 2026-02-16T04:00:00.999936
MEAN_MOTION    = 15.75173422
ECCENTRICITY   = .0001235
INCLINATION    = 97.2828
RA_OF_ASC_NODE = 80.1001
ARG_OF_PERICENTER = 64.5083
MEAN_ANOMALY   = 233.4650

EPHEMERIS_TYPE = 0
CLASSIFICATION_TYPE = U
NORAD_CAT_ID   = 67659
ELEMENT_SET_NO = 999
REV_AT_EPOCH   = 343
BSTAR          = .8692E-4
MEAN_MOTION_DOT = .12845E-3
MEAN_MOTION_DDOT = 0

CCSDS_OMM_VERS = 2.0
CREATION_DATE  = 
ORIGINATOR     = 

OBJECT_NAME    = STARLINK-36673
OBJECT_ID      = 2026-022N
CENTER_NAME    = EARTH
REF_FRAME      = TEME
TIME_SYSTEM    = UTC
MEAN_ELEMENT_THEORY = SGP/SGP4

EPOCH          = 2026-02-16T04:00:00.999936
MEAN_MOTION    = 15.75294249
ECCENTRICITY   = .000127
INCLINATION    = 97.2827
RA_OF_ASC_NODE = 80.1024
ARG_OF_PERICENTER = 75.5385
MEAN_ANOMALY   = 230.3984

EPHEMERIS_TYPE = 0
CLASSIFICATION_TYPE = U
NORAD_CAT_ID   = 67660
ELEMENT_SET_NO = 999
REV_AT_EPOCH   = 343
BSTAR          = -.13717E-2
MEAN_MOTION_DOT = -.200895E-2
MEAN_MOTION_DDOT = 0

CCSDS_OMM_VERS = 2.0
CREATION_DATE  = 
ORIGINATOR     = 

OBJECT_NAME    = STARLINK-36674
OBJECT_ID      = 2026-022P
CENTER_NAME    = EARTH
REF_FRAME      = TEME
TIME_SYSTEM    = UTC
MEAN_ELEMENT_THEORY = SGP/SGP4

EPOCH          = 2026-02-16T04:00:00.999936
MEAN_MOTION    = 15.75983254
ECCENTRICITY   = .0001594
INCLINATION    = 97.2837
RA_OF_ASC_NODE = 80.1061
ARG_OF_PERICENTER = 92.5829
MEAN_ANOMALY   = 220.9507

EPHEMERIS_TYPE = 0
CLASSIFICATION_TYPE = U
NORAD_CAT_ID   = 67661
ELEMENT_SET_NO = 999
REV_AT_EPOCH   = 343
BSTAR          = -.78047E-2
MEAN_MOTION_DOT = -.108304E-1
MEAN_MOTION_DDOT = 0

CCSDS_OMM_VERS = 2.0
CREATION_DATE  = 
ORIGINATOR     = 

OBJECT_NAME    = STARLINK-36700
OBJECT_ID      = 2026-022Q
CENTER_NAME    = EARTH
REF_FRAME      = TEME
TIME_SYSTEM    = UTC
MEAN_ELEMENT_THEORY = SGP/SGP4

EPOCH          = 2026-02-16T04:00:00.999936
MEAN_MOTION    = 15.75949832
ECCENTRICITY   = .0001591
INCLINATION    = 97.2818
RA_OF_ASC_NODE = 80.1107
ARG_OF_PERICENTER = 94.7720
MEAN_ANOMALY   = 230.8064

EPHEMERIS_TYPE = 0
CLASSIFICATION_TYPE = U
NORAD_CAT_ID   = 67662
ELEMENT_SET_NO = 999
REV_AT_EPOCH   = 343
BSTAR          = -.78523E-2
MEAN_MOTION_DOT = -.1087539E-1
MEAN_MOTION_DDOT = 0

CCSDS_OMM_VERS = 2.0
CREATION_DATE  = 
ORIGINATOR     = 

OBJECT_NAME    = STARLINK-36675
OBJECT_ID      = 2026-022R
CENTER_NAME    = EARTH
REF_FRAME      = TEME
TIME_SYSTEM    = UTC
MEAN_ELEMENT_THEORY = SGP/SGP4

EPOCH          = 2026-02-16T04:00:00.999936
MEAN_MOTION    = 15.75482049
ECCENTRICITY   = .0001636
INCLINATION    = 97.2823
RA_OF_ASC_NODE = 80.1075
ARG_OF_PERICENTER = 89.2084
MEAN_ANOMALY   = 228.6427

EPHEMERIS_TYPE = 0
CLASSIFICATION_TYPE = U
NORAD_CAT_ID   = 67663
ELEMENT_SET_NO = 999
REV_AT_EPOCH   = 343
BSTAR          = -.35144E-2
MEAN_MOTION_DOT = -.501114E-2
MEAN_MOTION_DDOT = 0

