STARLINK-36699          
1 67652U 26022E   26047.16667824 -.00019281  00000+0 -12863-3 0  9992
2 67652  97.2835  80.0800 0000972  75.3720 174.5951 15.75200516  3434
STARLINK-36694          
1 67653U 26022F   26047.16667824 -.00147879  00000+0 -10051-2 0  9994
2 67653  97.2834  80.0852 0001102  67.9977 193.9601 15.75252464  3434
STARLINK-36620          
1 67654U 26022G   26047.16667824 -.00054999  00000+0 -36970-3 0  9994
2 67654  97.2835  80.0855 0000702  68.2629 195.6900 15.75224810  3437
STARLINK-36720          
1 67655U 26022H   26047.16667824 -.00028664  00000+0 -19178-3 0  9996
2 67655  97.2834  80.0903 0001698  83.5035 190.4519 15.75208348  3434
STARLINK-36688          
1 67656U 26022J   26047.16667824 -.00033516  00000+0 -22447-3 0  9992
2 67656  97.2835  80.0913 0000984  86.2545 191.6990 15.75216512  3438
STARLINK-36706          
1 67657U 26022K   26047.16667824 -.00051800  00000+0 -34832-3 0  9990
2 67657  97.2833  80.0938 0001321  82.6730 203.3039 15.75203632  3407
STARLINK-36701          
1 67658U 26022L   26047.16667824 -.00069580  00000+0 -46894-3 0  9996
2 67658  97.2834  80.0970 0001118  81.8159 210.1529 15.75214654  3434
STARLINK-36642          
1 67659U 26022M   26047.16667824  .00012845  00000+0  86920-4 0  9992
2 67659  97.2828  80.1001 0001235  64.5083 233.4650 15.75173422  3438
STARLINK-36673          
1 67660U 26022N   26047.16667824 -.00200895  00000+0 -13717-2 0  9992
2 67660  97.2827  80.1024 0001270  75.5385 230.3984 15.75294249  3437
STARLINK-36674          
1 67661U 26022P   26047.16667824 -.01083040  00000+0 -78047-2 0  9992
2 67661  97.2837  80.1061 0001594  92.5829 220.9507 15.75983254  3438
STARLINK-36700          
1 67662U 26022Q   26047.16667824 -.01087539  00000+0 -78523-2 0  9999
2 67662  97.2818  80.1107 0001591  94.7720 230.8064 15.75949832  3432
STARLINK-36675          
1 67663U 26022R   26047.16667824 -.00501114  00000+0 -35144-2 0  9991
2 67663  97.2823  80.1075 0001636  89.2084 228.6427 15.75482049  3435
